IRIDIUM 171             
1 43929U 19002H   24277.87267359  .00000114  00000+0  33581-4 0  9997
2 43929  86.3933 253.4160 0002579  89.6985 270.4507 14.34218000299907
IRIDIUM 170             
1 43930U 19002J   24277.46452679  .00002406  00000+0  37740-3 0  9991
2 43930  86.6054 253.3868 0002545  85.8820 274.2688 14.72274629307788
IRIDIUM 167             
1 43931U 19002K   24277.44771924 -.00000438  00000+0 -16361-3 0  9998
2 43931  86.3927 253.3735 0002309  88.0180 272.1281 14.34213639299845
IRIDIUM 181             
1 56726U 23068S   24277.58751099  .00001313  00000+0  38185-3 0  9996
2 56726  86.8610 312.3559 0002550  95.4985 264.6507 14.43589318 72776
IRIDIUM 177             
1 56727U 23068T   24277.72596871  .00003219  00000+0  41999-3 0  9992
2 56727  86.1919 263.8040 0002397 101.7236 258.4254 14.80248990 74430
IRIDIUM 174             
1 56728U 23068U   24277.45034550  .00003089  00000+0  40300-3 0  9994
2 56728  86.1923 264.0475 0002529  97.8599 262.2909 14.80231186 74399
IRIDIUM 178             
1 56729U 23068V   24276.97133485  .00000765  00000+0  97156-4 0  9998
2 56729  86.5717 286.8634 0002523  93.4321 266.7189 14.80233052 74329
IRIDIUM 179             
1 56730U 23068W   24277.77713310  .00002457  00000+0  31989-3 0  9991
2 56730  86.6733 292.0253 0002226 101.1992 258.9480 14.80229966 74446
